{
  "type": "FeatureCollection",
  "features": [
    {
      "type": "Feature",
      "properties": {
        "norad_id": 34079,
        "name": "IRIDIUM 33 DEB",
        "group": "iridium-33-debris",
        "lat": -37.202292955522914,
        "lon": -170.51111199631342,
        "alt_km": 627.0195254919809,
        "timestamp": "2025-12-16T23:36:36.583131+00:00",
        "meta_object_name": "IRIDIUM 33 DEB",
        "meta_object_id": "1997-051CN",
        "meta_epoch": "2025-12-16T03:23:56.181408",
        "meta_mean_motion": 14.83619432,
        "meta_eccentricity": 0.00052215,
        "meta_inclination": 86.3777,
        "meta_ra_of_asc_node": 7.1155,
        "meta_arg_of_pericenter": 356.7637,
        "meta_mean_anomaly": 45.5465,
        "meta_ephemeris_type": 0,
        "meta_classification_type": "U",
        "meta_norad_cat_id": 34079,
        "meta_element_set_no": 999,
        "meta_rev_at_epoch": 89028,
        "meta_bstar": 0.0012282375,
        "meta_mean_motion_dot": 0.0001016,
        "meta_mean_motion_ddot": 0,
        "tle_line1": "1 34079U 97051CN  25350.14162247  .00010160  00000+0  12282-2 0  9991",
        "tle_line2": "2 34079  86.3777   7.1155 0005221 356.7637  45.5465 14.83619432890286"
      },
      "geometry": {
        "type": "Point",
        "coordinates": [
          -170.51111199631342,
          -37.202292955522914
        ]
      }
    },
    {
      "type": "Feature",
      "properties": {
        "norad_id": 34088,
        "name": "IRIDIUM 33 DEB",
        "group": "iridium-33-debris",
        "lat": 68.7578221814505,
        "lon": 38.13456953673172,
        "alt_km": 586.6798989791505,
        "timestamp": "2025-12-16T23:36:36.583141+00:00",
        "meta_object_name": "IRIDIUM 33 DEB",
        "meta_object_id": "1997-051CX",
        "meta_epoch": "2025-12-16T08:52:22.816992",
        "meta_mean_motion": 14.91555792,
        "meta_eccentricity": 0.00061391,
        "meta_inclination": 86.3848,
        "meta_ra_of_asc_node": 29.0562,
        "meta_arg_of_pericenter": 164.5141,
        "meta_mean_anomaly": 209.6288,
        "meta_ephemeris_type": 0,
        "meta_classification_type": "U",
        "meta_norad_cat_id": 34088,
        "meta_element_set_no": 999,
        "meta_rev_at_epoch": 88796,
        "meta_bstar": 0.0016532339,
        "meta_mean_motion_dot": 0.00016619,
        "meta_mean_motion_ddot": 0,
        "tle_line1": "1 34088U 97051CX  25350.36970853  .00016619  00000+0  16532-2 0  9992",
        "tle_line2": "2 34088  86.3848  29.0562 0006139 164.5141 209.6288 14.91555792887968"
      },
      "geometry": {
        "type": "Point",
        "coordinates": [
          38.13456953673172,
          68.7578221814505
        ]
      }
    },
    {
      "type": "Feature",
      "properties": {
        "norad_id": 34091,
        "name": "IRIDIUM 33 DEB",
        "group": "iridium-33-debris",
        "lat": 69.82957646898289,
        "lon": -125.13892463670125,
        "alt_km": 638.8390055789623,
        "timestamp": "2025-12-16T23:36:36.583151+00:00",
        "meta_object_name": "IRIDIUM 33 DEB",
        "meta_object_id": "1997-051DA",
        "meta_epoch": "2025-12-16T05:17:24.983520",
        "meta_mean_motion": 14.82095169,
        "meta_eccentricity": 0.00334803,
        "meta_inclination": 86.3422,
        "meta_ra_of_asc_node": 65.2396,
        "meta_arg_of_pericenter": 280.6095,
        "meta_mean_anomaly": 79.1357,
        "meta_ephemeris_type": 0,
        "meta_classification_type": "U",
        "meta_norad_cat_id": 34091,
        "meta_element_set_no": 999,
        "meta_rev_at_epoch": 87918,
        "meta_bstar": 0.0036064506,
        "meta_mean_motion_dot": 0.00029061,
        "meta_mean_motion_ddot": 0,
        "tle_line1": "1 34091U 97051DA  25350.22042805  .00029061  00000+0  36065-2 0  9996",
        "tle_line2": "2 34091  86.3422  65.2396 0033480 280.6095  79.1357 14.82095169879183"
      },
      "geometry": {
        "type": "Point",
        "coordinates": [
          -125.13892463670125,
          69.82957646898289
        ]
      }
    },
    {
      "type": "Feature",
      "properties": {
        "norad_id": 34097,
        "name": "IRIDIUM 33 DEB",
        "group": "iridium-33-debris",
        "lat": -1.9796688474182509,
        "lon": -0.5960733198355198,
        "alt_km": 721.0013307906092,
        "timestamp": "2025-12-16T23:36:36.583162+00:00",
        "meta_object_name": "IRIDIUM 33 DEB",
        "meta_object_id": "1997-051DG",
        "meta_epoch": "2025-12-16T01:51:38.376000",
        "meta_mean_motion": 14.34805305,
        "meta_eccentricity": 0.00822356,
        "meta_inclination": 86.2008,
        "meta_ra_of_asc_node": 359.9353,
        "meta_arg_of_pericenter": 351.3044,
        "meta_mean_anomaly": 8.6721,
        "meta_ephemeris_type": 0,
        "meta_classification_type": "U",
        "meta_norad_cat_id": 34097,
        "meta_element_set_no": 999,
        "meta_rev_at_epoch": 87167,
        "meta_bstar": 0.0010750734,
        "meta_mean_motion_dot": 3.186e-05,
        "meta_mean_motion_ddot": 0,
        "tle_line1": "1 34097U 97051DG  25350.07752750  .00003186  00000+0  10751-2 0  9996",
        "tle_line2": "2 34097  86.2008 359.9353 0082235 351.3044   8.6721 14.34805305871672"
      },
      "geometry": {
        "type": "Point",
        "coordinates": [
          -0.5960733198355198,
          -1.9796688474182509
        ]
      }
    },
    {
      "type": "Feature",
      "properties": {
        "norad_id": 34145,
        "name": "IRIDIUM 33 DEB",
        "group": "iridium-33-debris",
        "lat": 21.11209954101135,
        "lon": -27.89694245436566,
        "alt_km": 730.1653528015522,
        "timestamp": "2025-12-16T23:36:36.583173+00:00",
        "meta_object_name": "IRIDIUM 33 DEB",
        "meta_object_id": "1997-051DY",
        "meta_epoch": "2025-12-16T05:11:50.015904",
        "meta_mean_motion": 14.42314642,
        "meta_eccentricity": 0.00557711,
        "meta_inclination": 86.2114,
        "meta_ra_of_asc_node": 330.9786,
        "meta_arg_of_pericenter": 82.793,
        "meta_mean_anomaly": 277.9606,
        "meta_ephemeris_type": 0,
        "meta_classification_type": "U",
        "meta_norad_cat_id": 34145,
        "meta_element_set_no": 999,
        "meta_rev_at_epoch": 87688,
        "meta_bstar": 0.00083631618,
        "meta_mean_motion_dot": 2.832e-05,
        "meta_mean_motion_ddot": 0,
        "tle_line1": "1 34145U 97051DY  25350.21655111  .00002832  00000+0  83632-3 0  9995",
        "tle_line2": "2 34145  86.2114 330.9786 0055771  82.7930 277.9606 14.42314642876886"
      },
      "geometry": {
        "type": "Point",
        "coordinates": [
          -27.89694245436566,
          21.11209954101135
        ]
      }
    },
    {
      "type": "Feature",
      "properties": {
        "norad_id": 34146,
        "name": "IRIDIUM 33 DEB",
        "group": "iridium-33-debris",
        "lat": 57.459418816735024,
        "lon": 162.07923458730966,
        "alt_km": 721.4568282400642,
        "timestamp": "2025-12-16T23:36:36.583184+00:00",
        "meta_object_name": "IRIDIUM 33 DEB",
        "meta_object_id": "1997-051DZ",
        "meta_epoch": "2025-12-16T00:05:26.706048",
        "meta_mean_motion": 14.49072903,
        "meta_eccentricity": 0.00258086,
        "meta_inclination": 86.2834,
        "meta_ra_of_asc_node": 348.3589,
        "meta_arg_of_pericenter": 210.1704,
        "meta_mean_anomaly": 203.4774,
        "meta_ephemeris_type": 0,
        "meta_classification_type": "U",
        "meta_norad_cat_id": 34146,
        "meta_element_set_no": 999,
        "meta_rev_at_epoch": 88154,
        "meta_bstar": 0.00067263387,
        "meta_mean_motion_dot": 2.584e-05,
        "meta_mean_motion_ddot": 0,
        "tle_line1": "1 34146U 97051DZ  25350.00378132  .00002584  00000+0  67263-3 0  9994",
        "tle_line2": "2 34146  86.2834 348.3589 0025808 210.1704 203.4774 14.49072903881541"
      },
      "geometry": {
        "type": "Point",
        "coordinates": [
          162.07923458730966,
          57.459418816735024
        ]
      }
    },
    {
      "type": "Feature",
      "properties": {
        "norad_id": 34159,
        "name": "IRIDIUM 33 DEB",
        "group": "iridium-33-debris",
        "lat": 36.300909291036426,
        "lon": 49.119179982177684,
        "alt_km": 771.1977661210531,
        "timestamp": "2025-12-16T23:36:36.583195+00:00",
        "meta_object_name": "IRIDIUM 33 DEB",
        "meta_object_id": "1997-051EN",
        "meta_epoch": "2025-12-16T03:24:28.180512",
        "meta_mean_motion": 14.38502653,
        "meta_eccentricity": 0.00259522,
        "meta_inclination": 86.3506,
        "meta_ra_of_asc_node": 46.7908,
        "meta_arg_of_pericenter": 275.7121,
        "meta_mean_anomaly": 84.1118,
        "meta_ephemeris_type": 0,
        "meta_classification_type": "U",
        "meta_norad_cat_id": 34159,
        "meta_element_set_no": 999,
        "meta_rev_at_epoch": 88008,
        "meta_bstar": 0.00037309184,
        "meta_mean_motion_dot": 1.163e-05,
        "meta_mean_motion_ddot": 0,
        "tle_line1": "1 34159U 97051EN  25350.14199283  .00001163  00000+0  37309-3 0  9991",
        "tle_line2": "2 34159  86.3506  46.7908 0025952 275.7121  84.1118 14.38502653880088"
      },
      "geometry": {
        "type": "Point",
        "coordinates": [
          49.119179982177684,
          36.300909291036426
        ]
      }
    }
  ]
}